PHASE 3B (AO-10)        
1 14129U 83058B   21005.79784508  .00000411  00000-0  00000-0 0  9993
2 14129  25.7619 181.8418 6070844 298.7938  13.7724  2.05866333254578
UOSAT 2 (UO-11)         
1 14781U 84021B   21007.43362455  .00000097  00000-0  17904-4 0  9999
2 14781  97.5895  15.2439 0007041 247.1175 112.9296 14.83234902962068
LUSAT (LO-19)           
1 20442U 90005G   21007.82117189 -.00000007  00000-0  14152-4 0  9998
2 20442  98.7203 322.0226 0010676 274.3770  85.6194 14.32972807617886
EYESAT A (AO-27)        
1 22825U 93061C   21007.46072348 -.00000005  00000-0  16027-4 0  9998
2 22825  98.9243  21.0623 0009116 138.4234 221.7642 14.30102908422978
ITAMSAT (IO-26)         
1 22826U 93061D   21007.46915688 -.00000005  00000-0  15855-4 0  9990
2 22826  98.9183  20.9955 0009789 127.3875 232.8200 14.30440370423211
RADIO ROSTO (RS-15)     
1 23439U 94085A   21007.55308020 -.00000037  00000-0  15882-3 0  9998
2 23439  64.8165 276.1830 0155687   4.1489 356.0686 11.27569984 72193
JAS-2 (FO-29)           
1 24278U 96046B   21007.25216843 -.00000068  00000-0 -32147-4 0  9996
2 24278  98.5859  96.4692 0350008 207.0462 151.2058 13.53101742204445
TECHSAT 1B (GO-32)      
1 25397U 98043D   21007.46702942 -.00000008  00000-0  16165-4 0  9996
2 25397  98.7530 313.6272 0001499 144.2653 215.8626 14.23698838168582
ISS (ZARYA)             
1 25544U 98067A   21007.96816279  .00001613  00000-0  37065-4 0  9994
2 25544  51.6457  55.2089 0000614 186.8385 236.9442 15.49266603263765
PCSAT (NO-44)           
1 26931U 01043C   21007.31257150 -.00000023  00000-0  22766-4 0  9996
2 26931  67.0522 336.3025 0007427 272.5833  87.4418 14.30601861  6195
SAUDISAT 1C (SO-50)     
1 27607U 02058C   21007.62565150  .00000011  00000-0  21926-4 0  9993
2 27607  64.5559 110.1184 0029409  93.7869 266.6597 14.75700314970986
CUTE-1 (CO-55)          
1 27844U 03031E   21007.58918678  .00000050  00000-0  42239-4 0  9993
2 27844  98.6816  18.2347 0009866 178.7399 181.3805 14.22280621909151
CUBESAT XI-IV (CO-57)   
1 27848U 03031J   21007.67547478  .00000044  00000-0  39609-4 0  9993
2 27848  98.6877  18.8875 0009530 191.3379 168.7585 14.21861681908996
MOZHAYETS 4 (RS-22)     
1 27939U 03042A   21007.74990740  .00000094  00000-0  25476-4 0  9990
2 27939  98.1157 146.2215 0014100  70.9018 289.3715 14.66930727923964
CUBESAT XI-V            
1 28895U 05043F   21007.59310240  .00000139  00000-0  35631-4 0  9993
2 28895  98.0353 144.5926 0016625   1.8165 358.3095 14.63851116810709
CUTE-1.7+APD II (CO-65) 
1 32785U 08021C   21007.61951541  .00000303  00000-0  38140-4 0  9994
2 32785  97.5935 352.8928 0013130 169.8088 190.3398 14.88606865688311
DELFI-C3 (DO-64)        
1 32789U 08021G   21007.57630482  .00001774  00000-0  11792-3 0  9997
2 32789  97.3959  49.0337 0011205 342.6211  17.4633 15.08369395692579
SEEDS II (CO-66)        
1 32791U 08021J   21007.39894278  .00000445  00000-0  50001-4 0  9996
2 32791  97.5564 358.7297 0014170 138.0867 222.1439 14.91240018688776
YUBILEINY (RS-30)       
1 32953U 08025A   21007.66378369  .00000028  00000-0  12906-3 0  9996
2 32953  82.5032 150.9321 0018742 329.1413  30.8562 12.43099398573007
KKS-1 (KISEKI)          
1 33499U 09002H   21007.63057376  .00000121  00000-0  25678-4 0  9992
2 33499  98.2898 233.7850 0008823 186.4172 173.6924 14.75604211643121
SWISSCUBE               
1 35932U 09051B   21007.80884071  .00000147  00000-0  44098-4 0  9994
2 35932  98.6065 202.6945 0006943 214.2247 145.8503 14.56473716599610
BEESAT-1                
1 35933U 09051C   21007.50645453  .00000118  00000-0  37613-4 0  9994
2 35933  98.6044 204.2399 0004942 227.7300 132.3478 14.56539285599688
ITUPSAT1                
1 35935U 09051E   21007.82752986  .00000111  00000-0  36511-4 0  9990
2 35935  98.6149 204.7396 0007265 228.7956 131.2615 14.55677873599436
XIWANG-1 (HOPE-1)       
1 36122U 09072B   21007.47687998 -.00000059  00000-0 -43981-4 0  9995
2 36122 100.1118 354.9506 0008181 112.7517 247.4462 13.16358007531712
JUGNU                   
1 37839U 11058B   21007.61978639  .00000304  00000-0  20220-4 0  9991
2 37839  19.9607 124.5965 0018941 118.7510 269.9067 14.12699556477692
SRMSAT                  
1 37841U 11058D   21007.23787243  .00000291  00000-0  14473-4 0  9999
2 37841  19.9702 195.4617 0011854 322.9576 193.3013 14.10682390476932
M-CUBED & EXP-1 PRIME   
1 37855U 11061F   21007.59120166  .00002036  00000-0  10588-3 0  9993
2 37855 101.7260 207.5630 0168735 188.8729 170.9491 15.07052805501946
STRAND-1                
1 39090U 13009E   21007.56653759  .00000028  00000-0  24824-4 0  9994
2 39090  98.4369 213.4378 0009891  42.7969 317.3985 14.35162760411966
SOMP                    
1 39134U 13015E   21007.28746578  .00002164  00000-0  10356-3 0  9998
2 39134  64.8647 336.2734 0013973 219.2715 140.7401 15.21845078426689
BEESAT-3                
1 39135U 13015F   21007.48191864  .00001663  00000-0  88833-4 0  9992
2 39135  64.8672   2.2506 0019613 209.9433 150.0573 15.18804226426191
BEESAT-2                
1 39136U 13015G   21007.41341366  .00001444  00000-0  79408-4 0  9995
2 39136  64.8741   8.2144 0030022 263.9624  95.8081 15.18183700426065
ZACUBE-1 (TSHEPISOSAT)  
1 39417U 13066B   21007.69906016  .00000334  00000-0  48091-4 0  9993
2 39417  97.5784   0.5069 0057991 329.5109  30.2737 14.81403499385276
GOMX-1                  
1 39430U 13066Q   21007.70286194  .00000186  00000-0  43149-4 0  9992
2 39430  97.8070 300.0572 0149383 261.2332  97.1934 14.59518521379593
CUBEBUG-2 (LO-74)       
1 39440U 13066AA  21007.53498953  .00000363  00000-0  56916-4 0  9995
2 39440  97.6556 345.0334 0080918  38.5319 322.1630 14.76134920382688
FUNCUBE-1 (AO-73)       
1 39444U 13066AE  21007.71272734  .00000394  00000-0  54395-4 0  9999
2 39444  97.5706   2.8432 0056870 320.5466  39.1613 14.82286820384213
UWE-3                   
1 39446U 13066AG  21007.44487266  .00000359  00000-0  53841-4 0  9995
2 39446  97.6188 352.0294 0069978   5.6189 354.5792 14.78670844382715
SPROUT                  
1 39770U 14029E   21007.78934236  .00000755  00000-0  88057-4 0  9993
2 39770  97.9076 119.3771 0009348  23.1652 336.9966 14.88112294359445
UNISAT-6                
1 40012U 14033C   21007.57718766  .00000215  00000-0  38996-4 0  9992
2 40012  97.6871 218.3146 0059410  61.2176 299.4982 14.74222552352494
DUCHIFAT-1              
1 40021U 14033M   21007.56343201  .00000711  00000-0  77532-4 0  9999
2 40021  97.9594 306.2151 0012457 341.1089  18.9665 14.91136189356300
QB50P1                  
1 40025U 14033R   21007.71603882  .00000328  00000-0  40610-4 0  9995
2 40025  97.9256 298.0796 0012275 354.2415   5.8659 14.89299264356004
NUDT-PHONESAT           
1 40900U 15049B   21007.76864137  .00003002  00000-0  12209-3 0  9996
2 40900  97.4262  23.0247 0011981 353.7602  60.4493 15.25258965294323
ZDPS 2A                 
1 40901U 15049C   21007.81338948  .00001506  00000-0  75300-4 0  9998
2 40901  97.4627  16.8947 0014082  28.0320  73.3481 15.18906809293586
ZDPS 2B                 
1 40902U 15049D   21007.79573354  .00001775  00000-0  88108-4 0  9996
2 40902  97.4645  14.1596 0014078  25.6801  77.6370 15.18921089293558
XW-2A                   
1 40903U 15049E   21007.84050260  .00002713  00000-0  61000-4 0  9994
2 40903  97.2607  62.7143 0011109 236.1577 177.7396 15.44173705298001
KAITUO 1A               
1 40904U 15049F   21007.83540995  .00000351  00000-0  21732-4 0  9997
2 40904  97.4826  11.8683 0015650  39.9213  58.4469 15.15952100293207
2015-049G               
1 40905U 15049G   21007.75992728  .00000439  00000-0  27176-4 0  9999
2 40905  97.4940   8.9175 0016640  38.4913 134.3595 15.14781090293008
XW-2C                   
1 40906U 15049H   21007.76090627  .00000658  00000-0  37222-4 0  9994
2 40906  97.4823  12.1986 0015617  31.0093  21.5014 15.16412078293212
XW-2D                   
1 40907U 15049J   21007.73225183  .00001102  00000-0  59547-4 0  9998
2 40907  97.4814  11.9172 0014865  28.2234  86.1609 15.16691980293236
LILACSAT-2              
1 40908U 15049K   21007.77564108  .00000561  00000-0  34187-4 0  9997
2 40908  97.4988  10.0319 0016875  40.1564  12.3343 15.14246255292913
XW-2F                   
1 40910U 15049M   21007.76846411  .00001357  00000-0  68967-4 0  9996
2 40910  97.4714  14.8220 0014943  16.6733 156.8355 15.18495705293330
XW-2B                   
1 40911U 15049N   21007.77030093  .00001038  00000-0  56434-4 0  9991
2 40911  97.4818  12.6509 0014767  29.1521 324.4884 15.16612974293124
KAITUO 1B               
1 40912U 15049P   21007.75581942  .00001591  00000-0  74824-4 0  9991
2 40912  97.4471  19.1220 0014325 351.8879 122.2592 15.20962885293767
TIANWANG 1C (TW-1C)     
1 40926U 15051B   21007.86309595  .00141629  00000-0  55644-3 0  9998
2 40926  97.0520  68.5403 0002818  36.3584  80.0339 15.86542508299142
TIANWANG 1A (TW-1A)     
1 40928U 15051D   21007.83874438  .00003818  00000-0  84887-4 0  9999
2 40928  97.0923  36.6508 0010801 151.4108 260.9432 15.44205772296890
LAPAN-A2                
1 40931U 15052B   21007.18940011  .00000847  00000-0  28850-4 0  9990
2 40931   5.9989 322.4845 0013681 284.3464  75.6015 14.76659564285425
E-ST@R-II               
1 41459U 16025D   21007.60364086  .00002835  00000-0  14386-3 0  9993
2 41459  98.1211 134.5623 0161580 244.1845 114.2646 15.07221225258185
AAUSAT 4                
1 41460U 16025E   21007.87341840  .00004475  00000-0  21564-3 0  9995
2 41460  98.1207 137.9684 0150015 229.4454 129.3633 15.09899076258471
NUSAT-1 (FRESCO)        
1 41557U 16033B   21007.74716432  .00001834  00000-0  68145-4 0  9993
2 41557  97.3981 102.6741 0014892  85.8675  37.6056 15.28742338256974
BEESAT-4                
1 41619U 16040W   21007.12414640  .00002131  00000-0  88718-4 0  9997
2 41619  97.2942  67.6037 0011022 172.9921 187.1473 15.24764332240422
